COSMOS 2419 (714)       
1 28915U 05050A   16192.90384553 -.00000056  00000-0  00000+0 0  9992
2 28915  65.3319  77.3637 0016408 353.6903 339.5232  2.13110833 82059
COSMOS 2425 (716)       
1 29670U 06062A   16192.45497375 -.00000057  00000-0  10000-3 0  9998
2 29670  65.6241 316.3734 0020144 348.8486  57.1182  2.13104939 74253
COSMOS 2426 (717)       
1 29671U 06062B   16192.89056395 -.00000058  00000-0  10000-3 0  9991
2 29671  65.6412 316.4403 0018373 161.5463  79.3314  2.13102917 74262
COSMOS 2424 (715)       
1 29672U 06062C   16193.08725869 -.00000059  00000-0  10000-3 0  9994
2 29672  65.6251 316.3618 0017838 160.3659  47.6677  2.13102346 74266
COSMOS 2433 (720)       
1 32275U 07052A   16193.10274016 -.00000057  00000-0  10000-3 0  9991
2 32275  65.3475  77.1277 0002083 296.1034  78.8593  2.13104762 67784
COSMOS 2432 (719)       
1 32276U 07052B   16193.16122069 -.00000057  00000-0  10000-3 0  9998
2 32276  65.3593  77.1919 0012506 341.9986  31.5983  2.13104270 67788
COSMOS 2434 (721)       
1 32393U 07065A   16193.33004028 -.00000061  00000-0  00000+0 0  9995
2 32393  65.2411 315.6547 0005586 114.3367 326.8500  2.13102855 66497
COSMOS 2436 (723)       
1 32395U 07065C   16193.19976789 -.00000060  00000-0  10000-3 0  9997
2 32395  65.2546 315.7025 0015867 358.4613  74.8076  2.13102904 66424
COSMOS 2443 (725)       
1 33379U 08046B   16192.69553462 -.00000056  00000-0  10000-3 0  9998
2 33379  65.2761  76.5559 0016368 182.8957 144.4859  2.13101411 60639
COSMOS 2456 (730)       
1 36111U 09070A   16193.19995957  .00000081  00000-0  00000+0 0  9990
2 36111  64.1829 195.2426 0006471 295.7565 215.2951  2.13102919 51155
COSMOS 2457 (733)       
1 36112U 09070B   16193.08157012  .00000080  00000-0  00000+0 0  9990
2 36112  64.1654 195.1733 0006858 190.1536   0.2114  2.13101590 51154
COSMOS 2458 (734)       
1 36113U 09070C   16192.45362429  .00000072  00000-0  10000-3 0  9997
2 36113  64.1707 195.2005 0002662 290.8928 185.3021  2.13101985 51148
COSMOS 2459 (731)       
1 36400U 10007A   16192.57378161 -.00000056  00000-0  10000-3 0  9994
2 36400  65.2548  76.2950 0029160 354.7166 199.5968  2.13102359 49493
COSMOS 2461 (735)       
1 36401U 10007B   16193.13998806 -.00000057  00000-0  10000-3 0  9993
2 36401  65.2487  76.2557 0007351  64.5901 114.6746  2.13102497 49507
COSMOS 2460 (732)       
1 36402U 10007C   16192.59860797 -.00000056  00000-0  10000-3 0  9999
2 36402  65.2389  76.2503 0001435  31.9253 133.8303  2.13101903 49496
COSMOS 2465 (737)       
1 37138U 10041B   16193.56457369 -.00000062  00000-0  00000+0 0  9991
2 37138  64.8416 315.8075 0036227 169.0623 136.0601  2.13093940 45589
COSMOS 2464 (736)       
1 37139U 10041C   16192.44019537 -.00000058  00000-0  00000+0 0  9994
2 37139  64.8483 315.8421 0022117  16.5165 329.7104  2.13102627 45569
COSMOS 2471 (701K)      
1 37372U 11009A   16193.09919352 -.00000057  00000-0  00000+0 0  9993
2 37372  65.2363  76.1834 0006849 237.7093  84.7445  2.13102781 41772
COSMOS 2474 (742)       
1 37829U 11055A   16193.15149153  .00000081  00000-0  00000+0 0  9998
2 37829  64.5070 195.6663 0010803 254.1886  80.9942  2.13101934 37146
COSMOS 2476 (744)       
1 37867U 11064A   16193.15365935  .00000081  00000-0  00000+0 0  9998
2 37867  64.4868 195.7473 0019726 248.5073 134.1855  2.13102020 36501
COSMOS 2477 (745)       
1 37868U 11064B   16192.66350259  .00000075  00000-0  00000-0 0  9991
2 37868  64.4954 195.8044 0017730 249.9709 295.9793  2.13101881 36441
COSMOS 2475 (743)       
1 37869U 11064C   16192.70301363  .00000075  00000-0  00000+0 0  9998
2 37869  64.5033 195.7914 0023061 273.4727 258.9278  2.13102070 36451
COSMOS 2485 (747)       
1 39155U 13019A   16192.74692497  .00000076  00000-0  00000+0 0  9996
2 39155  64.6566 195.7162 0019945 243.7795 232.0016  2.13102052 24965
COSMOS 2492 (754)       
1 39620U 14012A   16193.09276795 -.00000057  00000-0  10000-3 0  9990
2 39620  65.1266  76.2182 0016009 336.9345  77.4612  2.13103489 17920
COSMOS 2500 (755)       
1 40001U 14032A   16192.55870161 -.00000056  00000-0  00000+0 0  9998
2 40001  65.0674  76.2587 0004599 204.5664  23.8229  2.13103042 16126
COSMOS 2501 (702K)      
1 40315U 14075A   16193.43889912 -.00000062  00000-0  00000+0 0  9992
2 40315  64.6118 317.2573 0017165 231.0335 113.7136  2.13101640 12548
COSMOS 2514 (751)       
1 41330U 16008A   16193.19179291 -.00000058  00000-0  00000+0 0  9998
2 41330  64.8663  76.4685 0007760 216.1505 317.0186  2.13103595  3303
COSMOS 2516 (753)       
1 41554U 16032A   16193.55929477 -.00000062  00000-0  00000+0 0  9997
2 41554  64.7940 316.9360 0011193 215.8229 134.0387  2.13101501   913
